GNOMES-1                
1 46266U 20059B   26068.53916665  .00004080  00000+0  33422-3 0  9991
2 46266  97.8057 278.7760 0005451 357.8604   2.2595 14.99848479300657
STARLINK-34384          
1 64312U 25123X   26068.73366714  .00006108  00000+0  51922-3 0  9994
2 64312  70.0026 194.4036 0003996 269.0225  91.0476 14.98332101 41625
